FENGYUN 1C DEB          
1 35167U 99025DMX 24366.73270533  .00003911  00000+0  11549-2 0  9993
2 35167  98.4310   3.8902 0236384 146.7209 214.9094 14.29072613650742
FENGYUN 1C DEB          
1 35169U 99025DMZ 24366.83926202  .00007009  00000+0  13600-2 0  9999
2 35169  99.1698 210.2299 0159801  73.0471 288.8171 14.55689493607427
FENGYUN 1C DEB          
1 35171U 99025DNB 24366.17184205  .00009558  00000+0  68329-2 0  9997
2 35171  98.9873 160.4852 0143590 187.7102 172.1850 13.92575597837305
FENGYUN 1C DEB          
1 35173U 99025DND 24365.47613135  .00003491  00000+0  34450-2 0  9998
2 35173  99.8039  83.2125 0497015 336.4957  21.4141 13.35327404611905
FENGYUN 1C DEB          
1 35174U 99025DNE 24366.53802422  .00037878  00000+0  38248-2 0  9991
2 35174  98.9503 291.0952 0225453 205.5943 153.3965 14.73883697850239
FENGYUN 1C DEB          
1 35175U 99025DNF 24359.32525053  .00001574  00000+0  74042-3 0  9990
2 35175  98.5854  11.8189 0058049 222.9896 136.6738 14.20498064562166
FENGYUN 1C DEB          
1 35176U 99025DNG 24366.44962635  .00002417  00000+0  12234-2 0  9994
2 35176  98.5314   0.9411 0053951 334.2716  25.5777 14.16259445860253
FENGYUN 1C DEB          
1 35183U 99025DNP 24364.65023146  .00273747  00000+0  90458-2 0  9998
2 35183  98.8354 145.5718 0027639 190.4675 169.5989 15.29860859612525
FENGYUN 1C DEB          
1 35191U 99025DNX 24366.68105082  .00000797  00000+0  64030-3 0  9993
2 35191  98.9821 353.1987 0103985  71.4528 289.7895 13.90934110830906
FENGYUN 1C DEB          
1 35194U 99025DPA 24365.86956080  .00009813  00000+0  20300-2 0  9996
2 35194  98.9820  56.3374 0123207  51.3963 309.8190 14.55815893861396
FENGYUN 1C DEB          
1 35195U 99025DPB 24365.99901593  .00007460  00000+0  17168-2 0  9994
2 35195  99.0064  68.7570 0110823  35.7748 325.0804 14.51967823858879
FENGYUN 1C DEB          
1 35196U 99025DPC 24364.81856914  .00005941  00000+0  23126-2 0  9994
2 35196  98.5604  26.0681 0219177 264.3207 272.0798 14.17830648842003
FENGYUN 1C DEB          
1 35200U 99025DPG 24366.88549949  .00000673  00000+0  88063-3 0  9995
2 35200  98.8536  20.0787 0352963 211.5380 273.9308 13.41667024612659
FENGYUN 1C DEB          
1 35201U 99025DPH 24366.95433307  .00000494  00000+0  29951-3 0  9996
2 35201  98.7201  20.2884 0007323 146.8645 330.4908 14.10856086821437
FENGYUN 1C DEB          
1 35202U 99025DPJ 24365.87797963  .00000324  00000+0  49385-3 0  9993
2 35202 100.1170  48.6051 0376158 117.6899 246.2921 13.34123876523508
FENGYUN 1C DEB          
1 35203U 99025DPK 24366.56192383  .00003916  00000+0  45223-2 0  9992
2 35203 102.0607 271.1553 0519382 193.7901 164.8549 13.23946900550658
FENGYUN 1C DEB          
1 35204U 99025DPL 24365.94755302  .00023919  00000+0  73916-2 0  9995
2 35204  98.9957 167.6013 0044651 276.5831 235.8097 14.40677409860357
FENGYUN 1C DEB          
1 35208U 99025DPQ 24366.80740399  .00004140  00000+0  28065-2 0  9995
2 35208  98.9276  29.2746 0101609  33.4824 327.2709 13.98246328857266
FENGYUN 1C DEB          
1 35210U 99025DPS 24366.72985626  .00017107  00000+0  69371-2 0  9995
2 35210  99.0879 348.7334 0053893 161.3485  13.1394 14.26921710851753
FENGYUN 1C DEB          
1 35217U 99025DPZ 24366.80426203  .00004885  00000+0  52954-2 0  9990
2 35217 101.8888 204.9830 0304058  14.1559 346.7862 13.55454146565296
FENGYUN 1C DEB          
1 35220U 99025DQC 24358.09569906  .00007139  00000+0  33852-2 0  9995
2 35220  99.0545  53.9104 0047421 240.5213 119.1227 14.19259917829058
