OBJECT_NAME,OBJECT_ID,EPOCH,MEAN_MOTION,ECCENTRICITY,INCLINATION,RA_OF_ASC_NODE,ARG_OF_PERICENTER,MEAN_ANOMALY,EPHEMERIS_TYPE,CLASSIFICATION_TYPE,NORAD_CAT_ID,ELEMENT_SET_NO,REV_AT_EPOCH,BSTAR,MEAN_MOTION_DOT,MEAN_MOTION_DDOT,SEMIMAJOR_AXIS,DEBRIS_TYPE,ORBITAL_PERIOD,ORBITAL_PERIOD_HOURS,ALTITUDE,PERIGEE,APOGEE
FENGYUN 1C DEB,1999-025DMX,2024-12-31T17:35:05.740512,14.29072613,0.0236384,98.431,3.8902,146.7209,214.9094,0,U,35167,999,65074,0.0011549,3.911e-05,0.0,7172.969382144889,FENGYUN 1C,6045.882280299051,1.679411744527514,801.9693821448891,7003.411862701996,7342.526901587783
FENGYUN 1C DEB,1999-025DMZ,2024-12-31T20:08:32.238528,14.55689493,0.0159801,99.1698,210.2299,73.0471,288.8171,0,U,35169,999,60742,0.00136,7.009e-05,0.0,7085.2635576549665,FENGYUN 1C,5935.334993997488,1.6487041649993022,714.2635576549665,6972.040337477284,7198.486777832648
FENGYUN 1C DEB,1999-025DNB,2024-12-31T04:07:27.153120,13.92575597,0.014359,98.9873,160.4852,187.7102,172.185,0,U,35171,999,83730,0.0068329,9.558e-05,0.0,7297.755703192564,FENGYUN 1C,6204.3344769292,1.7234262435914445,926.7557031925644,7192.967229050422,7402.544177334707
FENGYUN 1C DEB,1999-025DND,2024-12-30T11:25:37.748640,13.35327404,0.0497015,99.8039,83.2125,336.4957,21.4141,0,U,35173,999,61190,0.003445,3.491e-05,0.0,7504.872759462488,FENGYUN 1C,6470.326874380062,1.7973130206611283,1133.872759462488,7131.869326008064,7877.876192916913
FENGYUN 1C DEB,1999-025DNE,2024-12-31T12:54:45.292608,14.73883697,0.0225453,98.9503,291.0952,205.5943,153.3965,0,U,35174,999,85023,0.0038248,0.00037878,0.0,7026.834064044366,FENGYUN 1C,5862.066868494145,1.6283519079150401,655.8340640443657,6868.411982020267,7185.256146068465
FENGYUN 1C DEB,1999-025DNF,2024-12-24T07:48:21.645792,14.20498064,0.0058049,98.5854,11.8189,222.9896,136.6738,0,U,35175,999,56216,0.00074042,1.574e-05,0.0,7201.805871431676,FENGYUN 1C,6082.377024765421,1.6895491735459502,830.8058714316758,7160.000108528602,7243.611634334749
FENGYUN 1C DEB,1999-025DNG,2024-12-31T10:47:27.716640,14.16259445,0.0053951,98.5314,0.9411,334.2716,25.5777,0,U,35176,999,86025,0.0012234,2.417e-05,0.0,7216.167884534273,FENGYUN 1C,6100.580524776209,1.6946057013267248,845.1678845342731,7177.235937180422,7255.099831888125
FENGYUN 1C DEB,1999-025DNP,2024-12-29T15:36:19.998144,15.29860859,0.0027639,98.8354,145.5718,190.4675,169.5989,0,U,35183,999,61252,0.0090458,0.00273747,0.0,6854.364870374481,FENGYUN 1C,5647.575553926477,1.5687709872017992,483.36487037448114,6835.420091309253,6873.309649439709
FENGYUN 1C DEB,1999-025DNX,2024-12-31T16:20:42.790848,13.9093411,0.0103985,98.9821,353.1987,71.4528,289.7895,0,U,35191,999,83090,0.0006403,7.97e-06,0.0,7303.496121853657,FENGYUN 1C,6211.656415699922,1.7254601154722005,932.4961218536573,7227.550717430562,7379.4415262767525
FENGYUN 1C DEB,1999-025DPA,2024-12-30T20:52:10.053120,14.55815893,0.0123207,98.982,56.3374,51.3963,309.819,0,U,35194,999,86139,0.00203,9.813e-05,0.0,7084.853436989701,FENGYUN 1C,5934.8196634898,1.6485610176360557,713.8534369897006,6997.563083248582,7172.14379073082
FENGYUN 1C DEB,1999-025DPB,2024-12-30T23:58:34.976352,14.51967823,0.0110823,99.0064,68.757,35.7748,325.0804,0,U,35195,999,85887,0.0017168,7.46e-05,0.0,7097.365644409516,FENGYUN 1C,5950.548387736111,1.6529301077044753,726.3656444095159,7018.710509128477,7176.020779690555
FENGYUN 1C DEB,1999-025DPC,2024-12-29T19:38:44.373696,14.17830648,0.0219177,98.5604,26.0681,264.3207,272.0798,0,U,35196,999,84200,0.0023126,5.941e-05,0.0,7210.835719855763,FENGYUN 1C,6093.820020314135,1.6927277834205932,839.8357198557633,7052.79078579868,7368.880653912845
FENGYUN 1C DEB,1999-025DPG,2024-12-31T21:15:07.155936,13.41667024,0.0352963,98.8536,20.0787,211.538,273.9308,0,U,35200,999,61265,0.00088063,6.73e-06,0.0,7481.212845518082,FENGYUN 1C,6439.753406503462,1.7888203906954063,1110.2128455180818,7217.153712558822,7745.271978477342
FENGYUN 1C DEB,1999-025DPH,2024-12-31T22:54:14.377248,14.10856086,0.0007323,98.7201,20.2884,146.8645,330.4908,0,U,35201,999,82143,0.00029951,4.94e-06,0.0,7234.580676479062,FENGYUN 1C,6123.944797724296,1.7010957771456379,863.5806764790623,7229.282793049677,7239.878559908448
FENGYUN 1C DEB,1999-025DPJ,2024-12-30T21:04:17.440032,13.34123876,0.0376158,100.117,48.6051,117.6899,246.2921,0,U,35202,999,52350,0.00049385,3.24e-06,0.0,7509.385567297085,FENGYUN 1C,6476.163828281087,1.7989343967447464,1138.385567297085,7226.914021674751,7791.857112919419
FENGYUN 1C DEB,1999-025DPK,2024-12-31T13:29:10.218912,13.239469,0.0519382,102.0607,271.1553,193.7901,164.8549,0,U,35203,999,55065,0.0045223,3.916e-05,0.0,7547.818760885564,FENGYUN 1C,6525.945102630145,1.8127625285083735,1176.8187608855642,7155.798640518938,7939.838881252191
FENGYUN 1C DEB,1999-025DPL,2024-12-30T22:44:28.580928,14.40677409,0.0044651,98.9957,167.6013,276.5831,235.8097,0,U,35204,999,86035,0.0073916,0.00023919,0.0,7134.398174822399,FENGYUN 1C,5997.182113235567,1.6658839203432132,763.3981748223987,7102.542373531999,7166.253976112798
FENGYUN 1C DEB,1999-025DPQ,2024-12-31T19:22:39.704736,13.98246328,0.0101609,98.9276,29.2746,33.4824,327.2709,0,U,35208,999,85726,0.0028065,4.14e-05,0.0,7278.011145654548,FENGYUN 1C,6179.172163860216,1.7164367121833932,907.0111456545483,7204.0600022046665,7351.96228910443
FENGYUN 1C DEB,1999-025DPS,2024-12-31T17:30:59.580864,14.2692171,0.0053893,99.0879,348.7334,161.3485,13.1394,0,U,35210,999,85175,0.0069371,0.00017107,0.0,7180.17579849348,FENGYUN 1C,6054.995678913148,1.6819432441425413,809.1757984934802,7141.479677062659,7218.871919924301
FENGYUN 1C DEB,1999-025DPZ,2024-12-31T19:18:08.239392,13.55454146,0.0304058,101.8888,204.983,14.1559,346.7862,0,U,35217,999,56529,0.0052954,4.885e-05,0.0,7430.395906279515,FENGYUN 1C,6374.250883878563,1.7706252455218232,1059.3959062795147,7204.468774432361,7656.3230381266685
FENGYUN 1C DEB,1999-025DQC,2024-12-23T02:17:48.398784,14.19259917,0.0047421,99.0545,53.9104,240.5213,119.1227,0,U,35220,999,82905,0.0033852,7.139e-05,0.0,7205.9937810267065,FENGYUN 1C,6087.683224691085,1.691023117969746,834.9937810267065,7171.8222379177,7240.1653241357135
